[{"OBJECT_NAME":"FLOCK 4G-8","OBJECT_ID":"2025-009E","EPOCH":"2026-03-09T17:22:17.546016","MEAN_MOTION":15.27623414,"ECCENTRICITY":0.00030503,"INCLINATION":97.4045,"RA_OF_ASC_NODE":151.2834,"ARG_OF_PERICENTER":315.2538,"MEAN_ANOMALY":44.8455,"EPHEMERIS_TYPE":0,"CLASSIFICATION_TYPE":"U","NORAD_CAT_ID":62613,"ELEMENT_SET_NO":999,"REV_AT_EPOCH":6372,"BSTAR":0.0005043806,"MEAN_MOTION_DOT":0.00013559,"MEAN_MOTION_DDOT":0},{"OBJECT_NAME":"STARLINK-35785","OBJECT_ID":"2025-303P","EPOCH":"2026-03-08T16:48:27.758592","MEAN_MOTION":15.27590097,"ECCENTRICITY":0.00016468,"INCLINATION":42.998,"RA_OF_ASC_NODE":316.3187,"ARG_OF_PERICENTER":260.863,"MEAN_ANOMALY":99.2036,"EPHEMERIS_TYPE":0,"CLASSIFICATION_TYPE":"U","NORAD_CAT_ID":67176,"ELEMENT_SET_NO":999,"REV_AT_EPOCH":1258,"BSTAR":0.001349336,"MEAN_MOTION_DOT":0.00037067,"MEAN_MOTION_DDOT":0}]
